{"type": "FeatureCollection", "features": [ {"type": "Feature", "properties": {"norad_id": 66449, "name": "STARLINK-34720", "group": "last-30-days", "lat": -24.60145877320374, "lon": 55.820256508745544, "alt_km": 417.00965970980906, "timestamp": "2025-12-06T05:40:08.010755+00:00", "meta": {"OBJECT_NAME": "STARLINK-34720", "OBJECT_ID": "2025-259AD", "EPOCH": "2025-12-05T00:00:02.999808", "MEAN_MOTION": 15.5060406, "ECCENTRICITY": 0.00015763, "INCLINATION": 43.0007, "RA_OF_ASC_NODE": 92.4808, "ARG_OF_PERICENTER": 263.8051, "MEAN_ANOMALY": 350.1524, "EPHEMERIS_TYPE": 0, "CLASSIFICATION_TYPE": "U", "NORAD_CAT_ID": 66449, "ELEMENT_SET_NO": 999, "REV_AT_EPOCH": 492, "BSTAR": -0.0009856421, "MEAN_MOTION_DOT": -0.00057791, "MEAN_MOTION_DDOT": 0}, "tle": {"line1": "1 66449U 25259AD  25339.00003472 -.00057791  00000+0 -98564-3 0  9995", "line2": "2 66449  43.0007  92.4808 0001576 263.8051 350.1524 15.50604060  4922"}}, "geometry": {"type": "Point", "coordinates": [55.820256508745544, -24.60145877320374]}}, {"type": "Feature", "properties": {"norad_id": 66450, "name": "STARLINK-35334", "group": "last-30-days", "lat": -23.525500391863893, "lon": 57.39279761346868, "alt_km": 416.897026860448, "timestamp": "2025-12-06T05:40:08.010767+00:00", "meta": {"OBJECT_NAME": "STARLINK-35334", "OBJECT_ID": "2025-259AE", "EPOCH": "2025-12-05T00:00:02.999808", "MEAN_MOTION": 15.50625426, "ECCENTRICITY": 0.00016846, "INCLINATION": 43.0007, "RA_OF_ASC_NODE": 92.475, "ARG_OF_PERICENTER": 278.9169, "MEAN_ANOMALY": 336.9604, "EPHEMERIS_TYPE": 0, "CLASSIFICATION_TYPE": "U", "NORAD_CAT_ID": 66450, "ELEMENT_SET_NO": 999, "REV_AT_EPOCH": 503, "BSTAR": -0.0016454132, "MEAN_MOTION_DOT": -0.00095858, "MEAN_MOTION_DDOT": 0}, "tle": {"line1": "1 66450U 25259AE  25339.00003472 -.00095858  00000+0 -16454-2 0  9990", "line2": "2 66450  43.0007  92.4750 0001684 278.9169 336.9604 15.50625426  5030"}}, "geometry": {"type": "Point", "coordinates": [57.39279761346868, -23.525500391863893]}}, {"type": "Feature", "properties": {"norad_id": 66454, "name": "VIASAT-3 F2", "group": "last-30-days", "lat": 2.080387074986623, "lon": -45.2138709084615, "alt_km": 23290.641617615056, "timestamp": "2025-12-06T05:40:08.010784+00:00", "meta": {"OBJECT_NAME": "VIASAT-3 F2", "OBJECT_ID": "2025-261A", "EPOCH": "2025-12-04T21:51:56.064384", "MEAN_MOTION": 2.28030055, "ECCENTRICITY": 0.23396731, "INCLINATION": 5.5696, "RA_OF_ASC_NODE": 293.0418, "ARG_OF_PERICENTER": 184.3884, "MEAN_ANOMALY": 199.1368, "EPHEMERIS_TYPE": 0, "CLASSIFICATION_TYPE": "U", "NORAD_CAT_ID": 66454, "ELEMENT_SET_NO": 999, "REV_AT_EPOCH": 47, "BSTAR": 0, "MEAN_MOTION_DOT": -6.1e-07, "MEAN_MOTION_DDOT": 0}, "tle": {"line1": "1 66454U 25261A   25338.91106556 -.00000061  00000+0  00000+0 0  9991", "line2": "2 66454   5.5696 293.0418 2339673 184.3884 199.1368  2.28030055   477"}}, "geometry": {"type": "Point", "coordinates": [-45.2138709084615, 2.080387074986623]}}, {"type": "Feature", "properties": {"norad_id": 66455, "name": "ATLAS 5 CENTAUR R/B", "group": "last-30-days", "lat": 1.9337644989972493, "lon": -49.481360742101906, "alt_km": 23419.961864941433, "timestamp": "2025-12-06T05:40:08.010796+00:00", "meta": {"OBJECT_NAME": "ATLAS 5 CENTAUR R/B", "OBJECT_ID": "2025-261B", "EPOCH": "2025-12-04T21:50:26.208384", "MEAN_MOTION": 2.2825938, "ECCENTRICITY": 0.23296066, "INCLINATION": 6.156, "RA_OF_ASC_NODE": 292.399, "ARG_OF_PERICENTER": 184.9104, "MEAN_ANOMALY": 190.8055, "EPHEMERIS_TYPE": 0, "CLASSIFICATION_TYPE": "U", "NORAD_CAT_ID": 66455, "ELEMENT_SET_NO": 999, "REV_AT_EPOCH": 47, "BSTAR": 0, "MEAN_MOTION_DOT": -6.1e-07, "MEAN_MOTION_DDOT": 0}, "tle": {"line1": "1 66455U 25261B   25338.91002556 -.00000061  00000+0  00000+0 0  9997", "line2": "2 66455   6.1560 292.3990 2329606 184.9104 190.8055  2.28259380   473"}}, "geometry": {"type": "Point", "coordinates": [-49.481360742101906, 1.9337644989972493]}}, {"type": "Feature", "properties": {"norad_id": 66456, "name": "STARLINK-35643", "group": "last-30-days", "lat": 0.39172022464055006, "lon": 109.5843646923429, "alt_km": 418.3537412454707, "timestamp": "2025-12-06T05:40:08.010807+00:00", "meta": {"OBJECT_NAME": "STARLINK-35643", "OBJECT_ID": "2025-262A", "EPOCH": "2025-12-05T06:00:02.000160", "MEAN_MOTION": 15.51206593, "ECCENTRICITY": 0.00011558, "INCLINATION": 43.0001, "RA_OF_ASC_NODE": 114.9306, "ARG_OF_PERICENTER": 270.0428, "MEAN_ANOMALY": 340.2674, "EPHEMERIS_TYPE": 0, "CLASSIFICATION_TYPE": "U", "NORAD_CAT_ID": 66456, "ELEMENT_SET_NO": 999, "REV_AT_EPOCH": 443, "BSTAR": -0.016734312, "MEAN_MOTION_DOT": -0.00923174, "MEAN_MOTION_DDOT": 0}, "tle": {"line1": "1 66456U 25262A   25339.25002315 -.00923174  00000+0 -16734-1 0  9993", "line2": "2 66456  43.0001 114.9306 0001155 270.0428 340.2674 15.51206593  4430"}}, "geometry": {"type": "Point", "coordinates": [109.5843646923429, 0.39172022464055006]}}, {"type": "Feature", "properties": {"norad_id": 66457, "name": "STARLINK-35466", "group": "last-30-days", "lat": 2.997173696538608, "lon": 112.3753222557075, "alt_km": 417.99136261932745, "timestamp": "2025-12-06T05:40:08.010817+00:00", "meta": {"OBJECT_NAME": "STARLINK-35466", "OBJECT_ID": "2025-262B", "EPOCH": "2025-12-05T06:00:02.000160", "MEAN_MOTION": 15.51208081, "ECCENTRICITY": 0.00012871, "INCLINATION": 43, "RA_OF_ASC_NODE": 114.9209, "ARG_OF_PERICENTER": 274.6886, "MEAN_ANOMALY": 339.4579, "EPHEMERIS_TYPE": 0, "CLASSIFICATION_TYPE": "U", "NORAD_CAT_ID": 66457, "ELEMENT_SET_NO": 999, "REV_AT_EPOCH": 443, "BSTAR": -0.016830675, "MEAN_MOTION_DOT": -0.00928141, "MEAN_MOTION_DDOT": 0}, "tle": {"line1": "1 66457U 25262B   25339.25002315 -.00928141  00000+0 -16831-1 0  9991", "line2": "2 66457  43.0000 114.9209 0001287 274.6886 339.4579 15.51208081  4434"}}, "geometry": {"type": "Point", "coordinates": [112.3753222557075, 2.997173696538608]}}, {"type": "Feature", "properties": {"norad_id": 66458, "name": "STARLINK-35684", "group": "last-30-days", "lat": 1.6890103413993036, "lon": 110.97218685393793, "alt_km": 418.3227758166313, "timestamp": "2025-12-06T05:40:08.010828+00:00", "meta": {"OBJECT_NAME": "STARLINK-35684", "OBJECT_ID": "2025-262C", "EPOCH": "2025-12-05T06:00:02.000160", "MEAN_MOTION": 15.51211207, "ECCENTRICITY": 0.00012891, "INCLINATION": 43.0001, "RA_OF_ASC_NODE": 114.9254, "ARG_OF_PERICENTER": 266.6576, "MEAN_ANOMALY": 345.5692, "EPHEMERIS_TYPE": 0, "CLASSIFICATION_TYPE": "U", "NORAD_CAT_ID": 66458, "ELEMENT_SET_NO": 999, "REV_AT_EPOCH": 443, "BSTAR": -0.016889286, "MEAN_MOTION_DOT": -0.00931213, "MEAN_MOTION_DDOT": 0}, "tle": {"line1": "1 66458U 25262C   25339.25002315 -.00931213  00000+0 -16889-1 0  9999", "line2": "2 66458  43.0001 114.9254 0001289 266.6576 345.5692 15.51211207  4433"}}, "geometry": {"type": "Point", "coordinates": [110.97218685393793, 1.6890103413993036]}}, {"type": "Feature", "properties": {"norad_id": 66459, "name": "STARLINK-35449", "group": "last-30-days", "lat": 4.295755725265629, "lon": 113.77293821584138, "alt_km": 417.8428875375548, "timestamp": "2025-12-06T05:40:08.010839+00:00", "meta": {"OBJECT_NAME": "STARLINK-35449", "OBJECT_ID": "2025-262D", "EPOCH": "2025-12-05T06:00:02.000160", "MEAN_MOTION": 15.51210398, "ECCENTRICITY": 0.00012475, "INCLINATION": 43, "RA_OF_ASC_NODE": 114.9159, "ARG_OF_PERICENTER": 275.8655, "MEAN_ANOMALY": 340.198, "EPHEMERIS_TYPE": 0, "CLASSIFICATION_TYPE": "U", "NORAD_CAT_ID": 66459, "ELEMENT_SET_NO": 999, "REV_AT_EPOCH": 443, "BSTAR": -0.016908938, "MEAN_MOTION_DOT": -0.00932176, "MEAN_MOTION_DDOT": 0}, "tle": {"line1": "1 66459U 25262D   25339.25002315 -.00932176  00000+0 -16909-1 0  9992", "line2": "2 66459  43.0000 114.9159 0001247 275.8655 340.1980 15.51210398  4432"}}, "geometry": {"type": "Point", "coordinates": [113.77293821584138, 4.295755725265629]}}, {"type": "Feature", "properties": {"norad_id": 66460, "name": "STARLINK-35424", "group": "last-30-days", "lat": 5.5553504690542175, "lon": 115.13647929415929, "alt_km": 417.5279840993244, "timestamp": "2025-12-06T05:40:08.010849+00:00", "meta": {"OBJECT_NAME": "STARLINK-35424", "OBJECT_ID": "2025-262E", "EPOCH": "2025-12-05T06:00:02.000160", "MEAN_MOTION": 15.51215751, "ECCENTRICITY": 0.00010191, "INCLINATION": 43.0001, "RA_OF_ASC_NODE": 114.9116, "ARG_OF_PERICENTER": 291.0003, "MEAN_ANOMALY": 326.9782, "EPHEMERIS_TYPE": 0, "CLASSIFICATION_TYPE": "U", "NORAD_CAT_ID": 66460, "ELEMENT_SET_NO": 999, "REV_AT_EPOCH": 443, "BSTAR": -0.017279042, "MEAN_MOTION_DOT": -0.00951041, "MEAN_MOTION_DDOT": 0}, "tle": {"line1": "1 66460U 25262E   25339.25002315 -.00951041  00000+0 -17279-1 0  9997", "line2": "2 66460  43.0001 114.9116 0001019 291.0003 326.9782 15.51215751  4432"}}, "geometry": {"type": "Point", "coordinates": [115.13647929415929, 5.5553504690542175]}}, {"type": "Feature", "properties": {"norad_id": 66461, "name": "STARLINK-35132", "group": "last-30-days", "lat": 6.874929963825963, "lon": 116.57437171224302, "alt_km": 417.582684206669, "timestamp": "2025-12-06T05:40:08.010862+00:00", "meta": {"OBJECT_NAME": "STARLINK-35132", "OBJECT_ID": "2025-262F", "EPOCH": "2025-12-05T06:00:02.000160", "MEAN_MOTION": 15.51206195, "ECCENTRICITY": 8.836e-05, "INCLINATION": 43.0001, "RA_OF_ASC_NODE": 114.9067, "ARG_OF_PERICENTER": 282.4655, "MEAN_ANOMALY": 337.432, "EPHEMERIS_TYPE": 0, "CLASSIFICATION_TYPE": "U", "NORAD_CAT_ID": 66461, "ELEMENT_SET_NO": 999, "REV_AT_EPOCH": 443, "BSTAR": -0.016969448, "MEAN_MOTION_DOT": -0.0093504, "MEAN_MOTION_DDOT": 0}, "tle": {"line1": "1 66461U 25262F   25339.25002315 -.00935040  00000+0 -16969-1 0  9994", "line2": "2 66461  43.0001 114.9067 0000883 282.4655 337.4320 15.51206195  4430"}}, "geometry": {"type": "Point", "coordinates": [116.57437171224302, 6.874929963825963]}}]}